FENGYUN-4A
1 41882U 16077A   26135.27025274 -.00000343  00000-0  00000-0 0  9991
2 41882   2.2387  80.6201 0008411 144.6228 228.8099  1.00269578 34604
FOX-1B (AO-91)
1 43017U 17073E   26135.06122797  .00007053  00000-0  30997-3 0  9990
2 43017  97.4752   2.9649 0153922  83.1011 278.7702 15.12079342460385
CANX-2
1 32790U 08021H   26134.39090769  .00002037  00000-0  14656-3 0  9998
2 32790  97.8624 113.5237 0011317 149.0638 211.1257 15.05365543979725
AIST-2 (RS-43)
1 39133U 13015D   26135.29458618  .00003071  00000-0  12682-3 0  9992
2 39133  64.8705   4.8566 0020313 245.7425 114.1584 15.25917137718885
NANOSATC-BR1
1 40024U 14033Q   26135.06627805  .00010892  00000-0  37378-3 0  9993
2 40024  98.0745 164.5456 0001803 313.2683  46.8405 15.30355370648911
QB50P1
1 40025U 14033R   26134.99315497  .00005342  00000-0  26846-3 0  9998
2 40025  98.0977 143.8254 0008141 351.7406   8.3691 15.17718628647998
QB50P2
1 40032U 14033Y   26135.20661603  .00004142  00000-0  22762-3 0  9994
2 40032  98.0750 130.0473 0005746 292.8297  67.2326 15.14710726647679
PERSEUS-M2
1 40037U 14033AD  26135.27704522  .00001372  00000-0  12951-3 0  9995
2 40037  97.9940  85.1538 0013270  53.4741 306.7699 14.95402663645860
PERSEUS-M1
1 40039U 14033AF  26135.25260998  .00001385  00000-0  13037-3 0  9999
2 40039  97.9631  78.8508 0012809  52.0717 308.1659 14.95514202645719
POLYITAN-1
1 40042U 14033AJ  26135.01611267  .00011848  00000-0  38530-3 0  9996
2 40042  98.0965 158.1693 0005448 256.8825 103.1807 15.32059740648519
TIGRISAT
1 40043U 14033AK  26134.69647705  .00001357  00000-0  16208-3 0  9998
2 40043  97.7792 285.4873 0049422 182.8795 177.2143 14.85012026640657
UKUBE-1
1 40074U 14037F   26134.44520638  .00004990  00000-0  28715-3 0  9996
2 40074  98.4241 134.1892 0000373  78.4472 281.6798 15.12988036643454
DEORBITSAIL
1 40719U 15032E   26135.14939809  .00004920  00000-0  36586-3 0  9998
2 40719  97.5932 352.6091 0012684 352.4944   7.6090 15.03374235586280
HORYU-IV
1 41340U 16012D   26134.82768950  .00134150  00000-0  72842-3 0  9993
2 41340  30.9889 320.3702 0005199  40.9689 319.1358 15.78477287565516
D-SAT
1 42794U 17036AF  26134.91546769  .00003809  00000-0  18277-3 0  9994
2 42794  97.5539 113.9342 0080338 277.2380  81.9725 15.16672232485813
CORVUS-BC2
1 42846U 17042X   26134.71148476  .00002062  00000-0  14506-3 0  9991
2 42846  97.4039 297.3753 0012066 221.1701 138.8617 15.06073140482020
CORVUS-BC1
1 42847U 17042Y   26135.24135600  .00001743  00000-0  12269-3 0  9995
2 42847  97.4069 298.6767 0011522 193.6684 166.4234 15.06245364482135
APRIZESAT-5 
1 37792U 11044E   26135.30777112  .00000513  00000-0  72075-4 0  9997
2 37792  98.2447  67.4208 0053589 108.0973 252.6085 14.81001208793922
APRIZESAT-6
1 37793U 11044F   26135.29793473  .00000329  00000-0  54062-4 0  9995
2 37793  98.2384  45.1241 0042821 189.4231 285.9062 14.76867550792297
APRIZESAT-7
1 39416U 13066A   26135.28135530  .00000882  00000-0  92888-4 0  9990
2 39416  97.7690  88.9803 0034901 322.5809  37.2980 14.91484761676323
APRIZESAT-8
1 39425U 13066K   26134.57732847  .00000694  00000-0  81048-4 0  9992
2 39425  97.8205  82.5207 0046968  38.0957 322.3564 14.87576414674677
BUGSAT-1 (TITA)
1 40014U 14033E   26135.28489888  .00002248  00000-0  12269-3 0  9991
2 40014  98.0415 225.9217 0026740 294.1134  65.7300 15.15223586650852
SAUDISAT-4
1 40016U 14033G   26135.31778327  .00000406  00000-0  60336-4 0  9999
2 40016  97.7539 282.5985 0044909 178.5273 181.6080 14.79492766641214
TABLETSAT-AURORA
1 40017U 14033H   26135.25368279  .00003011  00000-0  15540-3 0  9995
2 40017  98.0257 207.4376 0010526 334.1613  25.9091 15.17152404650219
APRIZESAT-9
1 40018U 14033J   26135.28821783  .00000245  00000-0  43750-4 0  9994
2 40018  97.9012 269.2996 0065001 306.7973  52.7282 14.74173047638712
APRIZESAT-10
1 40019U 14033K   26135.26929008  .00000210  00000-0  41009-4 0  9999
2 40019  97.9602 262.9722 0079238  19.8874 340.5392 14.70853185637414
AISAT
1 40054U 14034B   26135.26236434  .00005080  00000-0  33324-3 0  9993
2 40054  98.2417  45.2860 0008656 346.5217  13.5776 15.08150718642247
COSMOS-2407 [+]
1 28380U 04028A   26135.28923090  .00000041  00000-0  26074-4 0  9993
2 28380  82.9585  99.1984 0038940 346.6063 123.9509 13.76331821 95358
COSMOS-2414 [+]
1 28521U 05002A   26135.30287883  .00000055  00000-0  32710-4 0  9998
2 28521  82.9501  68.5180 0041486  63.9705 296.5721 13.87923045 79253
COSMOS-2463 [+]
1 36519U 10017A   26134.62526263  .00000027  00000-0  13698-4 0  9991
2 36519  82.9589 274.3664 0035296 221.5121 149.8612 13.71663331803330
NOAA-15
1 25338U 98030A   26135.23401422  .00000049  00000-0  37341-4 0  9991
2 25338  98.5085 156.7545 0011499  85.1752 275.0742 14.27135781456598
NOAA-18
1 28654U 05018A   26135.28259479  .00000019  00000-0  33212-4 0  9997
2 28654  98.8110 215.4360 0013293 242.3188 117.6636 14.13722906 81667
NOAA-19
1 33591U 09005A   26135.27569834  .00000011  00000-0  29599-4 0  9996
2 33591  98.9527 206.1249 0014735 121.5931 238.6681 14.13468694889835
SARAL
1 39086U 13009A   26135.29022580  .00000044  00000-0  32068-4 0  9995
2 39086  98.5560 322.2740 0002521  48.3343 311.8056 14.32847471690893
LAPAN-A3
1 41603U 16040E   26135.29288646  .00002077  00000-0  67633-4 0  9992
2 41603  97.1492 132.5268 0011822 127.2401 232.9922 15.32887312549777
METOP-A
1 29499U 06044A   26135.31405633  .00001500  00000-0  17827-3 0  9993
2 29499  98.3300 240.9946 0174585 173.8023 255.4498 14.75808299 20604
METEOR M1
1 35865U 09049A   26134.89091798  .00000027  00000-0  31716-4 0  9997
2 35865  98.7368  97.6088 0003189  59.4520 300.6972 14.23148903864510
METOP-B
1 38771U 12049A   26135.24637149  .00000061  00000-0  47868-4 0  9999
2 38771  98.6526 187.3989 0003502  87.9849 272.1729 14.21423042708585
METEOR M2
1 40069U 14037A   26135.27332811  .00000470  00000-0  23419-3 0  9991
2 40069  98.5093 112.1811 0006615 124.2499 235.9307 14.21453398614649
CSSWE
1 38761U 12048D   26135.31591823  .00015342  00000-0  33564-3 0  9998
2 38761  64.6624 204.7009 0052905 184.1742 175.8962 15.42847724111325
MCUBED-2
1 39469U 13072H   26135.26687014  .00005284  00000-0  21878-3 0  9993
2 39469 120.4887 225.0563 0140269 343.4369  16.2152 15.17531197112832
IPEX
1 39471U 13072K   26135.15204569  .00003448  00000-0  18706-3 0  9990
2 39471 120.4632 173.0037 0159716 326.8348  32.2793 15.07677318110258
FOX-1A (AO-85)
1 40967U 15058D   26135.08129724  .00002163  00000-0  20270-3 0  9991
2 40967  64.7770  21.8508 0129051  69.5693 291.9222 14.90765194108630
OOREOS
1 37224U 10062C   26135.17837976  .00001106  00000-0  11065-3 0  9996
2 37224  71.9682 155.1006 0012937 135.2022 225.0196 14.93597336111714
STARS (KUKAI)
1 33498U 09002G   26135.30285056  .00001734  00000-0  16224-3 0  9997
2 33498  98.1537  81.2799 0006964 282.0265  78.0174 14.95507662933566
YUBELEINY-2 (RS-40)
1 38735U 12041C   26135.26504569  .00000013  00000-0  25079-4 0  9999
2 38735  82.4738  95.2211 0018130 135.9749 224.2778 12.42648224625753
AIST-1
1 39492U 13078C   26135.25228891  .00000601  00000-0  51148-4 0  9990
2 39492  82.4139 302.7827 0017623  32.3804 327.8495 14.95972746670324
VELOX-1
1 40057U 14034E   26135.25499791  .00002679  00000-0  23499-3 0  9995
2 40057  98.2562  38.3948 0007996  27.4144 332.7497 14.97553162641670
DX1
1 40071U 14037C   26135.31972881  .00001628  00000-0  17578-3 0  9991
2 40071  98.3846  95.0344 0008023  30.2029 329.9648 14.89879973641216
COSMOS-2491 (RS-46) [i]
1 39497U 13076E   26135.27103799  .00000009  00000-0 -71715-5 0  9990
2 39497  82.4868 188.7505 0013779 157.9411 202.2265 12.43496520561163
COSMOS-2499 (RS-47) [i]
1 39765U 14028E   26135.29053850  .00000009  00000-0 -16834-4 0  9990
2 39765  82.4479 274.6260 0232526  78.9875 283.7286 12.82902615560808
TRANSIT 5B-5
1 00965U 64083D   26135.20601981  .00000035  00000-0  35816-4 0  9990
2 00965  90.0787 202.7725 0042014  17.2649  36.5938 13.57009525 39146
EUTELSAT 1-F4 (ECS 4)
1 18351U 87078B   26134.91718102 -.00000252  00000-0  00000-0 0  9993
2 18351  13.8525 342.3610 0011700  39.6132 321.7981  0.98690950126439
BISONSAT
1 40968U 15058E   26135.04981696  .00003055  00000-0  25283-3 0  9992
2 40968  64.7764   2.6651 0117562  66.3586 294.9817 14.95635688111704
DTUSAT-2
1 40030U 14033W   26134.87892126  .00004723  00000-0  25999-3 0  9990
2 40030  98.0863 130.5051 0007699   2.5050 357.6218 15.14559901647640
ELEKTRO-L2
1 41105U 15074A   26135.17160162 -.00000104  00000-0  00000-0 0  9995
2 41105   6.6109  70.9209 0001452 263.1566 306.1029  1.00272353 38176
DOVE-3
1 39429U 13066P   26135.14899716  .00001768  00000-0  23699-3 0  9999
2 39429  97.6666 356.6850 0115200 131.3848 229.7337 14.76051644666132
FORTE
1 24920U 97047A   26135.31161859  .00000094  00000-0  61288-4 0  9997
2 24920  69.9525  88.2762 0023784 317.5156  42.4124 14.27930617493991
DMSP 5D-2 F15/USA-147
1 25991U 99067A   26135.26469167  .00000088  00000-0  65830-4 0  9997
2 25991  98.9985 173.4044 0011147  96.1574 341.8341 14.17550492365988
CASSIOPE-1
1 39265U 13055A   26135.26290748  .00020722 -65946-6  23517-3 0  9995
2 39265  80.9128 106.6142 0300982 172.7747 187.7981 15.22668416662659
D-STAR ONE PHOENIX
1 43188U 18014J   26135.27142839  .00003007  00000-0  15837-3 0  9998
2 43188  97.5407  40.4603 0010285 122.3137 237.9093 15.16348642453779
S-NET D
1 43186U 18014G   26135.27238510  .00003014  00000-0  15876-3 0  9999
2 43186  97.5392  40.2731 0009698 125.3586 234.8554 15.16341707453770
TEN-KOH
1 43677U 18084G   26135.29918701  .00000646  00000-0  53222-4 0  9996
2 43677  98.0757 326.2817 0008485 223.7093 136.3460 15.02779555411224
STARS-AO
1 43679U 18084J   26135.02387252  .00003764  00000-0  19619-3 0  9995
2 43679  98.0539 346.9560 0000657 294.8627  65.2536 15.16663569412444
LUOJIA-1 01
1 43485U 18048B   26135.27378613  .00000322  00000-0  41837-4 0  9993
2 43485  97.8106 213.9925 0007911 222.8766 137.1834 14.87150793429321
